[{"OBJECT_NAME":"STARLINK-33680","OBJECT_ID":"2025-053Y","EPOCH":"2026-03-09T12:51:37.747584","MEAN_MOTION":15.27599733,"ECCENTRICITY":0.00010141,"INCLINATION":43.0018,"RA_OF_ASC_NODE":242.3219,"ARG_OF_PERICENTER":208.3718,"MEAN_ANOMALY":151.7079,"EPHEMERIS_TYPE":0,"CLASSIFICATION_TYPE":"U","NORAD_CAT_ID":63287,"ELEMENT_SET_NO":999,"REV_AT_EPOCH":5622,"BSTAR":0.00098198705,"MEAN_MOTION_DOT":0.00026875,"MEAN_MOTION_DDOT":0},{"OBJECT_NAME":"CZ-4 DEB","OBJECT_ID":"2003-049H","EPOCH":"2026-03-08T08:27:28.944576","MEAN_MOTION":15.27137095,"ECCENTRICITY":0.00307627,"INCLINATION":98.6284,"RA_OF_ASC_NODE":272.5918,"ARG_OF_PERICENTER":169.0311,"MEAN_ANOMALY":191.1601,"EPHEMERIS_TYPE":0,"CLASSIFICATION_TYPE":"U","NORAD_CAT_ID":35381,"ELEMENT_SET_NO":999,"REV_AT_EPOCH":18390,"BSTAR":0.0032047887,"MEAN_MOTION_DOT":0.00087287,"MEAN_MOTION_DDOT":0}]
